JILIN-1 08              
1 43160U 18008F   25053.81609280  .00011855  00000+0  47741-3 0  9995
2 43160  97.2222  83.1304 0006888 358.6997   1.4222 15.24986848391678
LEMUR-2-URAMCHANSOL     
1 43183U 18014D   25053.26033814  .00125572  00000+0  23687-2 0  9994
2 43183  97.5545 328.1240 0008995 143.1668 217.0201 15.47975125387047
LEMUR-2-KADI            
1 43184U 18014E   25053.48742298  .00032428  00000+0  11754-2 0  9991
2 43184  97.5323 322.3418 0008602 159.8828 200.2751 15.28262912386799
S-NET D                 
1 43186U 18014G   25053.28589010  .00010233  00000+0  63398-3 0  9994
2 43186  97.5717 317.3602 0008101 226.6121 133.4434 15.09935859386173
S-NET B                 
1 43187U 18014H   25053.29001150  .00009788  00000+0  60678-3 0  9991
2 43187  97.5723 317.3303 0008888 221.4982 138.5573 15.09920405386170
S-NET A                 
1 43188U 18014J   25053.28661385  .00009956  00000+0  61681-3 0  9995
2 43188  97.5732 317.4635 0008729 222.5023 137.5531 15.09940037386178
S-NET C                 
1 43189U 18014K   25053.29216467  .00009195  00000+0  57016-3 0  9996
2 43189  97.5748 317.4653 0010532 214.8663 145.1877 15.09917010384727
PAZ                     
1 43215U 18020A   25053.84948600  .00002384  00000+0  11669-3 0  9992
2 43215  97.4456  63.1007 0001652  87.0517 273.0907 15.19153926388246
GOES 17                 
1 43226U 18022A   25052.65279383 -.00000082  00000+0  00000+0 0  9996
2 43226   0.0495 296.3770 0001480 146.9141 199.1081  1.00271977 25606
LKW-4                   
1 43236U 18025A   25053.39343500  .00024969  00000+0  76789-3 0  9995
2 43236  97.5817 195.4674 0003860 232.3488 127.7404 15.33662261385905
ZHUHAI-1 OVS-02         
1 43440U 18040B   25053.79692853  .00017510  00000+0  63563-3 0  9991
2 43440  97.0900  94.9401 0003178 112.0740 248.0838 15.28363403379785
ZHUHAI-1 OHS-02         
1 43441U 18040C   25053.85480418  .00017951  00000+0  67088-3 0  9996
2 43441  97.0969  98.9693 0013356 141.9282 218.2904 15.27318944379792
GAOFEN-6                
1 43484U 18048A   25053.83592440  .00001696  00000+0  25035-3 0  9993
2 43484  97.8351 127.3221 0010892 285.5477  74.4530 14.76505350362655
LUOJIA-1 01             
1 43485U 18048B   25053.79333783  .00004356  00000+0  52567-3 0  9998
2 43485  97.8507 134.4585 0008543 251.5708 108.4577 14.84273281363004
PAKTES 1A               
1 43529U 18056A   25053.78871939  .00005834  00000+0  52775-3 0  9998
2 43529  98.0590 188.0294 0021412 261.0657  98.8139 14.95658266360172
PRSS 1                  
1 43530U 18056B   25053.82595616  .00002117  00000+0  28212-3 0  9990
2 43530  97.8364 128.7597 0001561 103.2550 256.8837 14.80657738357465
HAIYANG-1C              
1 43609U 18068A   25053.79891932 -.00000057  00000+0 -45823-5 0  9998
2 43609  98.5741 126.5814 0011338  78.4904 281.7553 14.34084997338377
SSTL S1-4               
1 43618U 18071A   25053.81743698  .00002858  00000+0  26149-3 0  9997
2 43618  97.5720 298.3306 0001819 351.3992   8.7198 14.95736180351260
HAIYANG-2B              
1 43655U 18081A   25053.82680707  .00000032  00000+0  73709-4 0  9998
2 43655  99.3371  64.6797 0001992 103.5364 256.6010 13.79303445318842
CZ-4B R/B               
1 43656U 18081B   25053.49587970  .00000369  00000+0  12763-3 0  9995
2 43656  99.4137 287.4757 0205061 207.4440 151.5792 14.31558116330667
CFOSAT                  
1 43662U 18083A   25053.82949768  .00008091  00000+0  41945-3 0  9992
2 43662  97.3693  67.3692 0003437 117.9415 242.2167 15.16419207349880
TEN-KOH                 
1 43677U 18084G   25053.74168440  .00006404  00000+0  52631-3 0  9990
2 43677  98.0869 221.7517 0010018 261.8177  98.1909 14.99496718344225
DIWATA-2B               
1 43678U 18084H   25053.77671554  .00003199  00000+0  28058-3 0  9993
2 43678  98.0947 225.9277 0007581 285.6336  74.4048 14.97380195344392
STARS-AO                
1 43679U 18084J   25053.54808869  .00011215  00000+0  71642-3 0  9995
2 43679  98.0720 234.7615 0002787   9.8635 350.2647 15.08829349344939
AUTCUBE 2               
1 43681U 18084K   25053.43787227  .00009815  00000+0  70292-3 0  9993
2 43681  98.0784 230.3823 0009800 220.9800 139.0690 15.04584016344642
METOP-C                 
1 43689U 18087A   25053.79492518  .00000258  00000+0  13792-3 0  9993
2 43689  98.6889 115.6962 0002472  98.1719 261.9739 14.21507887326720
ES'HAIL 2               
1 43700U 18090A   25053.36155689  .00000153  00000+0  00000+0 0  9997
2 43700   0.0157 163.7200 0001175 196.8119 307.9234  1.00270102 22866
TIANPING 1B             
1 43714U 18094E   25053.81064694  .00046224  00000+0  60077-3 0  9994
2 43714  97.3431  82.8413 0008319  83.2760 276.9443 15.58628566349510
MOHAMMED VI-B           
1 43717U 18095A   25053.83485951  .00001854  54140-9  26260-3 0  9993
2 43717  97.9472 128.0353 0001301  79.9213 280.2143 14.77147230330945
HYSIS                   
1 43719U 18096A   25053.76232083  .00002199  76710-9  29996-3 0  9993
2 43719  97.9005 117.6253 0001021 188.4153 171.7042 14.78748842336574
COSMOS 2530             
1 43751U 18097A   25053.76920605  .00000033  00000+0  16442-3 0  9990
2 43751  82.5185 159.8676 0018955   4.6449 355.4803 12.42861419282826
COSMOS 2531             
1 43752U 18097B   25053.79530301  .00000031  00000+0  15340-3 0  9998
2 43752  82.5231 160.7352 0016397  24.0653 336.1190 12.42853196282831
COSMOS 2532             
1 43753U 18097C   25053.82208311  .00000012  00000+0  14914-4 0  9992
2 43753  82.5176 159.7215 0017828  25.8225 334.3741 12.42852988282830
MINXSS-2                
1 43758U 18099A   25053.13585645  .00022955  00000+0  10480-2 0  9993
2 43758  97.5174 119.1201 0013522 170.3526 189.7971 15.20522388340616
SIRION PATHFINDER-2     
1 43759U 18099B   25053.56389292  .00009508  00000+0  62018-3 0  9995
2 43759  97.4946 109.0949 0010771 147.8702 212.3185 15.08041361340172
AISTECHSAT 2            
1 43768U 18099L   25053.60762937  .00009464  00000+0  61139-3 0  9995
2 43768  97.5008 107.3583 0006403 142.6381 217.5293 15.08427509339807
FOX-1CLIFF (AO-95)      
1 43770U 18099N   25053.57883194  .00015671  00000+0  86418-3 0  9997
2 43770  97.5084 112.9830 0010957 218.9023 141.1421 15.14010874340346
2018-099Q               
1 43772U 18099Q   25053.57227611  .00029544  00000+0  12218-2 0  9995
2 43772  97.4879 118.2588 0004787 116.2950 243.8780 15.23912738340664
RANGE-A                 
1 43773U 18099R   25053.59611558  .00007874  00000+0  52377-3 0  9998
2 43773  97.4664 105.1221 0011470 191.2424 168.8550 15.07364192340097
HIBER-2                 
1 43774U 18099S   25053.58376165  .00039024  00000+0  14021-2 0  9995
2 43774  97.5054 121.1090 0007083 154.6626 205.4962 15.28521094340786
MOVE-II                 
1 43780U 18099Y   25053.44134453  .00085210  00000+0  19020-2 0  9991
2 43780  97.4818 123.8638 0004355 180.5660 179.5583 15.43224763341121
VESTA-1                 
1 43781U 18099Z   25053.43493784  .00044462  00000+0  16344-2 0  9996
2 43781  97.4814 114.9469 0004417 175.8694 184.2582 15.27751237340645
SNUSAT-2                
1 43782U 18099AA  25053.43243667  .00014196  00000+0  83044-3 0  9993
2 43782  97.4777 110.4220 0013272 159.8572 200.3184 15.11886688340297
SNUGLITE                
1 43784U 18099AC  25053.56498340  .00015448  00000+0  84582-3 0  9998
2 43784  97.4588 109.9345 0004337 154.0588 206.0862 15.14311213340427
ITASAT                  
1 43786U 18099AE  25053.13278662  .00009712  00000+0  59005-3 0  9995
2 43786  97.4737 109.9265 0014479 212.3116 147.7228 15.10598280340221
KAZSCISAT-1             
1 43787U 18099AF  25053.60304977  .00078737  00000+0  18973-2 0  9998
2 43787  97.4676 120.0131 0003939 156.2805 203.8624 15.40950688341109
EAGLET-I                
1 43790U 18099AJ  25053.61414500  .00007386  00000+0  49011-3 0  9997
2 43790  97.4939 110.6549 0012300 189.3369 170.7632 15.07469625339946
ESEO                    
1 43792U 18099AL  25053.56591439  .00003696  00000+0  28713-3 0  9996
2 43792  97.4588 105.2441 0011096 159.3247 200.8429 15.01859728339751
CSIM-FD                 
1 43793U 18099AM  25053.16776964  .00082240  00000+0  18276-2 0  9995
2 43793  97.4997 125.5792 0007089 157.7797 202.3759 15.43353566340928
THEA                    
1 43796U 18099AQ  25053.41640906  .00019289  00000+0  96175-3 0  9990
2 43796  97.5095 118.0148 0011132 169.9559 190.1899 15.17526502339524
ASTROCAST 0.1           
1 43798U 18099AS  25053.14369176  .00021526  00000+0  90008-3 0  9995
2 43798  97.4991 120.3816 0009282 131.3944 228.8092 15.23578104340788
JY1SAT (JO-97)          
1 43803U 18099AX  25053.41572408  .00018559  00000+0  94264-3 0  9996
2 43803  97.4832 113.6380 0008837 153.2193 206.9498 15.16904911340502
SUOMI-100               
1 43804U 18099AY  25053.40892865  .00016604  00000+0  88787-3 0  9990
2 43804  97.4902 113.1869 0013960 156.5659 203.6212 15.15060625340450
AL-FARABI 2             
1 43805U 18099AZ  25053.75164446  .00029903  00000+0  11679-2 0  9997
2 43805  97.4720 117.4318 0008626 137.2529 222.9381 15.25805670340842
CENTAURI-1              
1 43809U 18099BD  25053.61333724  .00009284  00000+0  58409-3 0  9996
2 43809  97.4933 110.8425 0016578 180.1440 179.9787 15.09310660339988
GLOBAL-2                
1 43812U 18099BG  25053.59908480  .00005781  00000+0  41736-3 0  9997
2 43812  97.4234 104.4534 0006502  14.7994 345.3422 15.04446209339695
BRIO                    
1 43813U 18099BH  25053.45275278  .00096127  00000+0  21132-2 0  9996
2 43813  97.5313 130.7187 0003509 131.4106 228.7443 15.43637018340879
SEAHAWK-1               
1 43820U 18099BQ  25053.58656612  .00012305  00000+0  71069-3 0  9994
2 43820  97.4669 109.8008 0010651 173.3268 186.8107 15.12410112339788
SAUDISAT 5A             
1 43831U 18102A   25053.78508181  .00009610  00000+0  43300-3 0  9992
2 43831  97.3736 119.8260 0011812  31.2577 328.9359 15.21196515342623
